{"type": "FeatureCollection", "features": [ {"type": "Feature", "properties": {"norad_id": 45344, "name": "BEIDOU-3 G2 (C60)", "group": "gnss", "lat": -2.475325582733016, "lon": -54.900963050692965, "alt_km": 35767.719296111245, "timestamp": "2025-12-09T09:46:47.890143+00:00", "meta": {"OBJECT_NAME": "BEIDOU-3 G2 (C60)", "OBJECT_ID": "2020-017A", "EPOCH": "2025-12-08T17:24:33.367680", "MEAN_MOTION": 1.00273181, "ECCENTRICITY": 0.00043587, "INCLINATION": 2.49, "RA_OF_ASC_NODE": 43.8378, "ARG_OF_PERICENTER": 265.5358, "MEAN_ANOMALY": 109.5017, "EPHEMERIS_TYPE": 0, "CLASSIFICATION_TYPE": "U", "NORAD_CAT_ID": 45344, "ELEMENT_SET_NO": 999, "REV_AT_EPOCH": 2135, "BSTAR": 0, "MEAN_MOTION_DOT": -1.39e-06, "MEAN_MOTION_DDOT": 0}, "tle": {"line1": "1 45344U 20017A   25342.72538620 -.00000139  00000+0  00000+0 0  9991", "line2": "2 45344   2.4900  43.8378 0004358 265.5358 109.5017  1.00273181 21351"}}, "geometry": {"type": "Point", "coordinates": [-54.900963050692965, -2.475325582733016]}}, {"type": "Feature", "properties": {"norad_id": 45358, "name": "COSMOS 2545 (760)", "group": "gnss", "lat": 1.1102266104433882, "lon": 138.54409961747547, "alt_km": 19119.85369677143, "timestamp": "2025-12-09T09:46:47.890155+00:00", "meta": {"OBJECT_NAME": "COSMOS 2545 (760)", "OBJECT_ID": "2020-018A", "EPOCH": "2025-12-08T16:55:08.218272", "MEAN_MOTION": 2.13102249, "ECCENTRICITY": 0.00119292, "INCLINATION": 64.4721, "RA_OF_ASC_NODE": 319.1115, "ARG_OF_PERICENTER": 248.7134, "MEAN_ANOMALY": 111.1544, "EPHEMERIS_TYPE": 0, "CLASSIFICATION_TYPE": "U", "NORAD_CAT_ID": 45358, "ELEMENT_SET_NO": 999, "REV_AT_EPOCH": 4460, "BSTAR": 0, "MEAN_MOTION_DOT": -5e-07, "MEAN_MOTION_DDOT": 0}, "tle": {"line1": "1 45358U 20018A   25342.70495623 -.00000050  00000+0  00000+0 0  9992", "line2": "2 45358  64.4721 319.1115 0011929 248.7134 111.1544  2.13102249 44608"}}, "geometry": {"type": "Point", "coordinates": [138.54409961747547, 1.1102266104433882]}}, {"type": "Feature", "properties": {"norad_id": 45807, "name": "BEIDOU-3 G3 (C61)", "group": "gnss", "lat": -1.986662517412888, "lon": -24.424507837807564, "alt_km": 35765.19225985496, "timestamp": "2025-12-09T09:46:47.890172+00:00", "meta": {"OBJECT_NAME": "BEIDOU-3 G3 (C61)", "OBJECT_ID": "2020-040A", "EPOCH": "2025-12-08T17:33:17.532288", "MEAN_MOTION": 1.00275813, "ECCENTRICITY": 0.00060306, "INCLINATION": 1.9816, "RA_OF_ASC_NODE": 66.5886, "ARG_OF_PERICENTER": 306.262, "MEAN_ANOMALY": 78.7159, "EPHEMERIS_TYPE": 0, "CLASSIFICATION_TYPE": "U", "NORAD_CAT_ID": 45807, "ELEMENT_SET_NO": 999, "REV_AT_EPOCH": 2016, "BSTAR": 0, "MEAN_MOTION_DOT": -3.52e-06, "MEAN_MOTION_DDOT": 0}, "tle": {"line1": "1 45807U 20040A   25342.73145292 -.00000352  00000+0  00000+0 0  9998", "line2": "2 45807   1.9816  66.5886 0006030 306.2620  78.7159  1.00275813 20161"}}, "geometry": {"type": "Point", "coordinates": [-24.424507837807564, -1.986662517412888]}}, {"type": "Feature", "properties": {"norad_id": 45854, "name": "GPS BIII-3  (PRN 23)", "group": "gnss", "lat": 55.762606104032194, "lon": 140.2145130224378, "alt_km": 20218.293244013483, "timestamp": "2025-12-09T09:46:47.890186+00:00", "meta": {"OBJECT_NAME": "GPS BIII-3  (PRN 23)", "OBJECT_ID": "2020-041A", "EPOCH": "2025-12-08T06:52:29.701632", "MEAN_MOTION": 2.00561767, "ECCENTRICITY": 0.0060382, "INCLINATION": 56.544, "RA_OF_ASC_NODE": 36.3588, "ARG_OF_PERICENTER": 203.2609, "MEAN_ANOMALY": 165.7518, "EPHEMERIS_TYPE": 0, "CLASSIFICATION_TYPE": "U", "NORAD_CAT_ID": 45854, "ELEMENT_SET_NO": 999, "REV_AT_EPOCH": 4021, "BSTAR": 0, "MEAN_MOTION_DOT": -7.9e-07, "MEAN_MOTION_DDOT": 0}, "tle": {"line1": "1 45854U 20041A   25342.28645488 -.00000079  00000+0  00000+0 0  9999", "line2": "2 45854  56.5440  36.3588 0060382 203.2609 165.7518  2.00561767 40210"}}, "geometry": {"type": "Point", "coordinates": [140.2145130224378, 55.762606104032194]}}, {"type": "Feature", "properties": {"norad_id": 46114, "name": "GALAXY 30 (WAAS/PRN 135)", "group": "gnss", "lat": 0.03576727439894639, "lon": 100.07961346196556, "alt_km": 35795.522139814864, "timestamp": "2025-12-09T09:46:47.890200+00:00", "meta": {"OBJECT_NAME": "GALAXY 30 (WAAS/PRN 135)", "OBJECT_ID": "2020-056C", "EPOCH": "2025-12-09T02:50:38.725728", "MEAN_MOTION": 1.00271328, "ECCENTRICITY": 0.0002397, "INCLINATION": 0.0174, "RA_OF_ASC_NODE": 357.6559, "ARG_OF_PERICENTER": 259.2548, "MEAN_ANOMALY": 98.8607, "EPHEMERIS_TYPE": 0, "CLASSIFICATION_TYPE": "U", "NORAD_CAT_ID": 46114, "ELEMENT_SET_NO": 999, "REV_AT_EPOCH": 1938, "BSTAR": 0, "MEAN_MOTION_DOT": 3.9e-07, "MEAN_MOTION_DDOT": 0}, "tle": {"line1": "1 46114U 20056C   25343.11850377  .00000039  00000+0  00000+0 0  9998", "line2": "2 46114   0.0174 357.6559 0002397 259.2548  98.8607  1.00271328 19389"}}, "geometry": {"type": "Point", "coordinates": [100.07961346196556, 0.03576727439894639]}}, {"type": "Feature", "properties": {"norad_id": 46805, "name": "COSMOS 2547 (705K)", "group": "gnss", "lat": 30.91055163278485, "lon": -144.6562849250489, "alt_km": 19141.92909037612, "timestamp": "2025-12-09T09:46:47.890212+00:00", "meta": {"OBJECT_NAME": "COSMOS 2547 (705K)", "OBJECT_ID": "2020-075A", "EPOCH": "2025-12-07T22:54:27.999936", "MEAN_MOTION": 2.13099949, "ECCENTRICITY": 0.00062185, "INCLINATION": 64.596, "RA_OF_ASC_NODE": 198.8564, "ARG_OF_PERICENTER": 228.8188, "MEAN_ANOMALY": 131.2072, "EPHEMERIS_TYPE": 0, "CLASSIFICATION_TYPE": "U", "NORAD_CAT_ID": 46805, "ELEMENT_SET_NO": 999, "REV_AT_EPOCH": 3983, "BSTAR": 0, "MEAN_MOTION_DOT": 5.3e-07, "MEAN_MOTION_DDOT": 0}, "tle": {"line1": "1 46805U 20075A   25341.95449074  .00000053  00000+0  00000+0 0  9990", "line2": "2 46805  64.5960 198.8564 0006218 228.8188 131.2072  2.13099949 39835"}}, "geometry": {"type": "Point", "coordinates": [-144.6562849250489, 30.91055163278485]}}, {"type": "Feature", "properties": {"norad_id": 46826, "name": "GPS BIII-4  (PRN 14)", "group": "gnss", "lat": 48.948009351907444, "lon": -85.01930077609508, "alt_km": 20296.259899931545, "timestamp": "2025-12-09T09:46:47.890224+00:00", "meta": {"OBJECT_NAME": "GPS BIII-4  (PRN 14)", "OBJECT_ID": "2020-078A", "EPOCH": "2025-12-08T14:24:03.318624", "MEAN_MOTION": 2.00566768, "ECCENTRICITY": 0.00645741, "INCLINATION": 54.0161, "RA_OF_ASC_NODE": 218.509, "ARG_OF_PERICENTER": 203.354, "MEAN_ANOMALY": 2.942, "EPHEMERIS_TYPE": 0, "CLASSIFICATION_TYPE": "U", "NORAD_CAT_ID": 46826, "ELEMENT_SET_NO": 999, "REV_AT_EPOCH": 3768, "BSTAR": 0, "MEAN_MOTION_DOT": 1.6e-07, "MEAN_MOTION_DDOT": 0}, "tle": {"line1": "1 46826U 20078A   25342.60003841  .00000016  00000+0  00000+0 0  9996", "line2": "2 46826  54.0161 218.5090 0064574 203.3540   2.9420  2.00566768 37684"}}, "geometry": {"type": "Point", "coordinates": [-85.01930077609508, 48.948009351907444]}}, {"type": "Feature", "properties": {"norad_id": 48859, "name": "GPS BIII-5  (PRN 11)", "group": "gnss", "lat": -52.517592434439024, "lon": -135.10934923559626, "alt_km": 20127.75371026172, "timestamp": "2025-12-09T09:46:47.890235+00:00", "meta": {"OBJECT_NAME": "GPS BIII-5  (PRN 11)", "OBJECT_ID": "2021-054A", "EPOCH": "2025-12-08T04:14:32.423424", "MEAN_MOTION": 2.00553628, "ECCENTRICITY": 0.0024681, "INCLINATION": 55.2581, "RA_OF_ASC_NODE": 340.1367, "ARG_OF_PERICENTER": 233.3965, "MEAN_ANOMALY": 212.8622, "EPHEMERIS_TYPE": 0, "CLASSIFICATION_TYPE": "U", "NORAD_CAT_ID": 48859, "ELEMENT_SET_NO": 999, "REV_AT_EPOCH": 3292, "BSTAR": 0, "MEAN_MOTION_DOT": -8.6e-07, "MEAN_MOTION_DDOT": 0}, "tle": {"line1": "1 48859U 21054A   25342.17676416 -.00000086  00000+0  00000+0 0  9993", "line2": "2 48859  55.2581 340.1367 0024681 233.3965 212.8622  2.00553628 32928"}}, "geometry": {"type": "Point", "coordinates": [-135.10934923559626, -52.517592434439024]}}, {"type": "Feature", "properties": {"norad_id": 49336, "name": "QZS-1R (QZSS/PRN 196)", "group": "gnss", "lat": -36.591007964077185, "lon": 3.3545605005807193, "alt_km": 32648.63537751444, "timestamp": "2025-12-09T09:46:47.890247+00:00", "meta": {"OBJECT_NAME": "QZS-1R (QZSS/PRN 196)", "OBJECT_ID": "2021-096A", "EPOCH": "2025-12-08T14:42:38.556864", "MEAN_MOTION": 1.00258569, "ECCENTRICITY": 0.07543626, "INCLINATION": 37.0693, "RA_OF_ASC_NODE": 82.4203, "ARG_OF_PERICENTER": 271.2519, "MEAN_ANOMALY": 79.6136, "EPHEMERIS_TYPE": 0, "CLASSIFICATION_TYPE": "U", "NORAD_CAT_ID": 49336, "ELEMENT_SET_NO": 999, "REV_AT_EPOCH": 1509, "BSTAR": 0, "MEAN_MOTION_DOT": -2.65e-06, "MEAN_MOTION_DDOT": 0}, "tle": {"line1": "1 49336U 21096A   25342.61294626 -.00000265  00000+0  00000+0 0  9997", "line2": "2 49336  37.0693  82.4203 0754362 271.2519  79.6136  1.00258569 15091"}}, "geometry": {"type": "Point", "coordinates": [3.3545605005807193, -36.591007964077185]}}, {"type": "Feature", "properties": {"norad_id": 49809, "name": "GSAT0223 (GALILEO 27)", "group": "gnss", "lat": -53.07947541560001, "lon": -72.25523315049197, "alt_km": 23216.7115390818, "timestamp": "2025-12-09T09:46:47.890260+00:00", "meta": {"OBJECT_NAME": "GSAT0223 (GALILEO 27)", "OBJECT_ID": "2021-116A", "EPOCH": "2025-12-08T12:32:15.823104", "MEAN_MOTION": 1.70475635, "ECCENTRICITY": 0.00046796, "INCLINATION": 57.2201, "RA_OF_ASC_NODE": 346.8263, "ARG_OF_PERICENTER": 251.0345, "MEAN_ANOMALY": 213.7248, "EPHEMERIS_TYPE": 0, "CLASSIFICATION_TYPE": "U", "NORAD_CAT_ID": 49809, "ELEMENT_SET_NO": 999, "REV_AT_EPOCH": 2493, "BSTAR": 0, "MEAN_MOTION_DOT": -8.6e-07, "MEAN_MOTION_DDOT": 0}, "tle": {"line1": "1 49809U 21116A   25342.52240536 -.00000086  00000+0  00000+0 0  9997", "line2": "2 49809  57.2201 346.8263 0004679 251.0345 213.7248  1.70475635 24930"}}, "geometry": {"type": "Point", "coordinates": [-72.25523315049197, -53.07947541560001]}}]}